auctioneer_url,lat,lng,state,city,zip,address,auctions
https://www.liveauctioneers.com/auctioneer/1009/the-artifact-company/,38.0554,-83.9466,KY,Mount Sterling,40353,P.O. Box 1005 209 W. Main St.,73.0
https://www.liveauctioneers.com/auctioneer/1011/universal-live/,42.121927,-87.839958,IL,Northbrook,60062,3005 Commercial,483.0
https://www.liveauctioneers.com/auctioneer/1013/julien-s-auctions/,34.0213,-118.383,CA,Gardena,90249,13007 S. Western Avenue,82.0
https://www.liveauctioneers.com/auctioneer/1014/schwenke-auctioneers/,41.5627,-73.2058,CT,Woodbury CT,06798,Mail/Payments: PO Box 957. Woodbury CT 06798 Auction Gallery/Pickup Location - 50 Main Street North,61.0
https://www.liveauctioneers.com/auctioneer/1016/charles-a-whitaker-auction-co/,40.3645,-74.9686,PA,Philadelphia,19119,Philadelphia,30.0
https://www.liveauctioneers.com/auctioneer/1018/converse-auctions/,40.0416,-75.4851,PA,Paoli,19301,1 Spring Street,151.0
https://www.liveauctioneers.com/auctioneer/1020/bart-long-and-associates-realty-and-auction-llc/,36.598291,-82.180139,VA,Bristol,24201,415 Scott Street,2.0
https://www.liveauctioneers.com/auctioneer/1022/mohawk-arms-inc/,42.3657,-97.5608,NY,Bouckville,13310,6819 U.S. 20 PO Box 157,46.0
https://www.liveauctioneers.com/auctioneer/1023/frasher-s-doll-auction/,39.3233,-94.1832,MO,Oak Grove,64075,2323 S. Mecklin Sch. Rd.,65.0
https://www.liveauctioneers.com/auctioneer/1030/louis-j-dianni-llc/,26.6779,-80.0723,FL,Sunrise,33351,11110 W Oakland Pk Blvd Suite 314,33.0
https://www.liveauctioneers.com/auctioneer/1037/premier-auction-galleries/,41.5259,-81.3379,OH,Chesterland,44026,12587 Chillicothe Rd,78.0
https://www.liveauctioneers.com/auctioneer/1044/fontaine-s-auction-gallery/,42.4307,-73.3175,MA,Pittsfield,01201,1485 West Housatonic St.,105.0
https://www.liveauctioneers.com/auctioneer/1056/pioneer-auction-gallery/,45.4169,-122.642,OR,Portland,97222,10824 SE Oak Street Suite 177,197.0
https://www.liveauctioneers.com/auctioneer/1057/j-sugarman-auction-corp/,25.9909,-80.1667,FL,Hollywood,33020,1914 Hollywood blvd,53.0
https://www.liveauctioneers.com/auctioneer/106/pook-and-pook-inc-with-noel-barrett/,40.011951,-75.695341,PA,Downingtown,19335,463 East Lancaster Ave,57.0
https://www.liveauctioneers.com/auctioneer/1060/keystone-auction-llc/,39.9635,-76.7229,PA,York,17403,218 E. Market Street ,149.0
https://www.liveauctioneers.com/auctioneer/1074/bloomington-auction-gallery-llc/,40.4779,-88.9908,IL,Bloomington,61701,300 E. Grove St.,28.0
https://www.liveauctioneers.com/auctioneer/1079/mosby-and-co-auctions/,39.3907,-77.4163,MD,Frederick,21704,5714-A Industry Lane,25.0
https://www.liveauctioneers.com/auctioneer/1087/merrill-s-auctioneers-and-appraisers/,44.4751,-73.1163,VT,Williston,05495,PO Box 558,144.0
https://www.liveauctioneers.com/auctioneer/1097/king-galleries/,34.0218,-84.362,GA,Roswell,30075,854 Atlanta St.,124.0
https://www.liveauctioneers.com/auctioneer/1101/aardvark-antiques-llc/,34.1366,-84.25,GA,Oakwood,30566,4316 Mundy Mill Rd,63.0
https://www.liveauctioneers.com/auctioneer/1104/tonya-cameron-auctions-tac-auctions/,42.5039,-71.0723,VA,Fredericksburg,22408,,44.0
https://www.liveauctioneers.com/auctioneer/1107/jeffrey-s-evans-and-associates/,38.3532,-78.9026,VA,Mt. Crawford,22841,2177 Green Valley Lane,247.0
https://www.liveauctioneers.com/auctioneer/1108/ira-and-larry-goldberg-coins-and-collectibles/,34.0361,-118.443,CA,Los Angeles,90064,11400 W. Olympic Blvd Suite 800,46.0
https://www.liveauctioneers.com/auctioneer/1109/tory-hill-auctions/,35.7906,-78.7152,NC,Raleigh,27606,5301 Hillsborough Street,18.0
https://www.liveauctioneers.com/auctioneer/1111/dutch-auction-sales/,39.8179,-75.2511,NJ,Mickleton,08056,356 Swedesboro Ave.,47.0
https://www.liveauctioneers.com/auctioneer/1113/malachite-auction-house-co/,33.1067,-96.8411,TX,Frisco,75035,3807 Strattford Drive PO Box 1718,5.0
https://www.liveauctioneers.com/auctioneer/1114/powell-auction-and-realty-llc/,36.0058,-84.0294,TN,Knoxville,37921,6729 Pleasant Ridge Road,5.0
https://www.liveauctioneers.com/auctioneer/1116/cottone-auctions/,42.8035,-77.827,NY,Geneseo,14454,120 Court Street,89.0
https://www.liveauctioneers.com/auctioneer/1120/premiere-props/,41.5105,-90.5042,CA,El Segundo,90245,128 Sierra Street,68.0
https://www.liveauctioneers.com/auctioneer/1121/manor-auctions/,27.6422,-80.4601,FL,Vero Beach,32966,6200 20th St. Ste 504,109.0
https://www.liveauctioneers.com/auctioneer/1122/copake-auction-inc/,42.1068,-73.5562,NY,Copake,12516,266 Route 7A,132.0
https://www.liveauctioneers.com/auctioneer/1125/rock-island-auction/,41.4432,-90.625,IL,Rock Island,61201,7819 42nd Street W,15.0
https://www.liveauctioneers.com/auctioneer/1126/don-black/,35.112272,-77.015266,NC,New Bern,28560,119A Bernhurst Rd,3.0
https://www.liveauctioneers.com/auctioneer/1133/ivy-auctions-inc/,34.481,-81.9466,SC,Laurens,29360,22391 Hwy. 76 East,31.0
https://www.liveauctioneers.com/auctioneer/1138/poster-auctions-international/,40.7384,-73.9939,NY,New York,10011,26 West 17th Street,12.0
https://www.liveauctioneers.com/auctioneer/114/phoebus-auction-gallery/,37.018128,-76.322108,VA,Hampton,23663,18 East Mellen Street,216.0
https://www.liveauctioneers.com/auctioneer/1142/little-john-s-auction-service/,33.780603,-117.861321,CA,Orange,92868,1740 W. La Veta Ave,2.0
https://www.liveauctioneers.com/auctioneer/1149/humler-and-nolan/,39.103,-84.5091,OH,Cincinnati,45202,225 E. 6th Street 4th Floor,44.0
https://www.liveauctioneers.com/auctioneer/1163/nest-egg-auctions/,41.5791,-72.9026,CT,Plantsville,06479,8 Metals Drive,74.0
https://www.liveauctioneers.com/auctioneer/1165/antiques-at-pompey-hollow-llc/,41.8626,-72.1654,CT,Ashford,06278,48 Pompey Hollow Road,11.0
https://www.liveauctioneers.com/auctioneer/1172/judd-s-auction-gallery-inc/,40.139,-87.6968,IL,Danville,61834,812 N. Vermilion,29.0
https://www.liveauctioneers.com/auctioneer/1174/elite-decorative-arts/,26.5498,-80.0767,FL,Boynton Beach,33426,1010 Gateway Blvd Suite 101,95.0
https://www.liveauctioneers.com/auctioneer/1183/a-1-auction/,28.5777,-81.4275,FL,Orlando,32808,3724 Silver Star Road,51.0
https://www.liveauctioneers.com/auctioneer/1186/denise-ryan-auctions/,42.9651,-71.4217,NH,Manchester,03109,289 South Mammoth Rd,141.0
https://www.liveauctioneers.com/auctioneer/119/posterconnection-inc/,37.9246,-121.923,CA,Clayton,94517,43 Regency Drive,19.0
https://www.liveauctioneers.com/auctioneer/1201/gallery-95-auction/,32.2936,-81.0761,SC,Hardeeville,29927,24022 Whyte Hardee Blvd.,41.0
https://www.liveauctioneers.com/auctioneer/1211/empire-estates-and-auctions-llc/,33.4698,-111.927,AZ,Scottsdale,85257,2012 Scottsdale Road,18.0
https://www.liveauctioneers.com/auctioneer/1212/cedarburg-auction-and-appraisals-llc/,43.3222,-87.9885,WI,Brown Deer,53223,4701 W Schroeder Drive,44.0
https://www.liveauctioneers.com/auctioneer/1215/smrj-auctions/,34.047024,-118.253142,CA,Los Angeles,90014,606 South Hill Street Suite 607,553.0
https://www.liveauctioneers.com/auctioneer/1220/klein-james-seattle-auction-gallery/,47.6443,-122.345,WA,Seattle,98116,4000 58th Place SW,90.0
https://www.liveauctioneers.com/auctioneer/1221/roland-ny/,40.8692,-73.6299,NY,Glen Cove,11542,150 School Street,240.0
https://www.liveauctioneers.com/auctioneer/1225/martin-auction-co/,37.4645,-89.2228,IL,Anna,62906,100 Lick Creek Road PO Box 2,175.0
https://www.liveauctioneers.com/auctioneer/1244/american-antique-auctions/,39.8783,-75.064,NJ,Haddon Heights,08035,418 4th Ave ,23.0
https://www.liveauctioneers.com/auctioneer/1245/ivey-selkirk-auctioneers/,38.6495,-90.3298,MO,Saint Louis,63105,7447 Forsyth Boulevard ,44.0
https://www.liveauctioneers.com/auctioneer/1250/embassy-auctions-international/,39.9832,-76.0185,PA,Kinzers,17535,5336 Mine Road,95.0
https://www.liveauctioneers.com/auctioneer/1257/tim-s-inc-auctions/,41.6974,-72.904,CT,Bristol,06010,1185 Farmington Ave (RT. 6),40.0
https://www.liveauctioneers.com/auctioneer/1261/ra-difillipo-auctions/,42.5223,-70.9256,MA,Peabody,01960,41 Washington St,35.0
https://www.liveauctioneers.com/auctioneer/1263/auctions-unlimited/,32.3999,-93.8047,LA,Shreveport,71118,2833 Summer Grove Dr.,10.0
https://www.liveauctioneers.com/auctioneer/1265/saco-river-auction/,43.5913,-70.3334,ME,Scarborough,04074,27 Gorham Rd Suite 212,210.0
https://www.liveauctioneers.com/auctioneer/1276/hudson-valley-auctioneers-llc-beacon-ny/,41.5028,-73.9654,NY,Beacon,12508,432 Main Street,97.0
https://www.liveauctioneers.com/auctioneer/1281/purcell-auction-gallery/,37.0299,-88.5886,KY,Paducah,42003,2156 Husbands Rd.,60.0
https://www.liveauctioneers.com/auctioneer/1290/estate-auction-company/,26.052,-80.1441,FL,Dania Beach,33004,6 S. Federal Hwy,125.0
https://www.liveauctioneers.com/auctioneer/1291/antiek-journeys-inc/,43.1612,-77.5825,NY,Rochester,14609,1115 East Main Street,5.0
https://www.liveauctioneers.com/auctioneer/1293/kennedys-auction-service-llc/,35.1952,-88.5054,TN,Selmer,38375,P.O. Box 9 4872 Hwy 64 East,41.0
https://www.liveauctioneers.com/auctioneer/1294/cagle-auction-co/,33.938,-83.4773,GA,Bogart,30622,130 Commerce Blvd,11.0
https://www.liveauctioneers.com/auctioneer/1296/omaha-auction-center/,41.2592,-96.0303,NE,Omaha,68114,7531 Dodge Street,26.0
https://www.liveauctioneers.com/auctioneer/130/san-rafael-auction-gallery/,37.963147,-122.488299,CA,San Rafael,94901,634 Fifth Avenue San Rafael,71.0
https://www.liveauctioneers.com/auctioneer/1300/cady-auction-gallery-and-appraisal/,41.9937,-91.667,IA,Cedar Rapids,52402,833 Shaver Road Northeast,9.0
https://www.liveauctioneers.com/auctioneer/1301/fox-auctions/,38.033,-122.267,CA,Rodeo,94572,P.O. Box 693,49.0
https://www.liveauctioneers.com/auctioneer/1308/cates-auction-and-realty-co-inc/,38.9305,-94.3109,MO,N. Kansas City,64116,1440 Iron St.,2.0
https://www.liveauctioneers.com/auctioneer/1328/main-auction-galleries/,39.0993,-84.5156,OH,Cincinnati,45202,137 West 4th St,67.0
https://www.liveauctioneers.com/auctioneer/1335/antique-reader-inc/,40.7547,-73.937,NY,Flushing,11355,41-06 Delong St Unit 1007,107.0
https://www.liveauctioneers.com/auctioneer/1338/danny-s-auction/,44.9808,-92.9817,MN,Oakdale,55128,2207 Gentry Avenue N.,17.0
https://www.liveauctioneers.com/auctioneer/1339/tom-hall-auctions-inc/,40.6693,-75.6084,PA,Schnecksville,18078,4644 Rt. 309 PO Box 310,44.0
https://www.liveauctioneers.com/auctioneer/135/signature-house/,34.10426,-117.668943,CA,UPLAND,91786,818 N. MOUNTAIN AVE #201,35.0
https://www.liveauctioneers.com/auctioneer/1350/vero-beach-auction/,27.6108,-80.3893,FL,Vero Beach,32962,492 Old Dixie Highway,97.0
https://www.liveauctioneers.com/auctioneer/1353/sterling-associates/,40.9815,-73.9581,NJ,Norwood,07648,537 Broadway,74.0
https://www.liveauctioneers.com/auctioneer/1354/river-valley-auction/,41.5249,-74.2348,NY,Montgomery,12549,40 Railroad Ave.,50.0
https://www.liveauctioneers.com/auctioneer/1368/elegance-gallery-and-auctioneers/,34.0888,-118.044,CA,El Monte,91731,4601 Arden Dr.,92.0
https://www.liveauctioneers.com/auctioneer/1373/akiba-galleries/,26.0527,-80.1444,FL,Dania Beach,33004,12 NW 1st Ave,188.0
https://www.liveauctioneers.com/auctioneer/1379/great-estates-auctioneers-and-appraisers/,41.3732,-74.6919,NY,PORT JERVIS,12771,40 FRONT STREET,62.0
https://www.liveauctioneers.com/auctioneer/1388/scheerer-mcculloch-auctioneers-inc/,40.7453,-84.9413,IN,Fort Wayne,46809,4420 Ardmore Ave.,101.0
https://www.liveauctioneers.com/auctioneer/1390/cave-creek-auction/,33.8321,-111.949,AZ,Cave Creek,85331,6061 E Cave Creek Road,12.0
https://www.liveauctioneers.com/auctioneer/1395/kraft-auction-service/,41.4409,-86.9798,IN,Valparaiso,46383,48 N 450 E,83.0
https://www.liveauctioneers.com/auctioneer/1396/the-saucon-valley-auction/,40.5772,-75.4745,PA,Allentown,18103,1901 S 12th St. 2nd Floor 2nd Floor,38.0
https://www.liveauctioneers.com/auctioneer/1400/mba-seattle-auction/,47.4796,-122.207,WA,Renton,98057,717 S. 3rd St PO Box 1617,112.0
https://www.liveauctioneers.com/auctioneer/1405/greater-london-auctions/,29.7891,-95.5214,TX,Houston ,77055,1200 Blalock Road #109,18.0
https://www.liveauctioneers.com/auctioneer/1406/king-s-auctions-inc/,33.5962,-117.87,CA,Corona Del Mar,92625,3334 E Coast Highway,59.0
https://www.liveauctioneers.com/auctioneer/1409/arus-auctions/,42.3482,-71.5544,MA,Framingham,01701,39 Ledgewood Rd ,35.0
https://www.liveauctioneers.com/auctioneer/1412/gorman-auctions/,38.8978,-104.868,CO,Colorado Springs,80907,2150 Garden of the Gods Rd Ste B (In Willowstone Marketplace),2.0
https://www.liveauctioneers.com/auctioneer/1413/robert-murphy-auctions/,41.5862,-72.7981,CT,Kensington,06037,116 Longview Drive,5.0
https://www.liveauctioneers.com/auctioneer/1417/echoes-antiques-and-auction-gallery-inc/,40.6651,-73.499,NY,Seaford,11783,3823 Merrick Road ,135.0
https://www.liveauctioneers.com/auctioneer/1435/carrolls-auctioneers-and-appraisers/,41.2874,-72.6855,CT,Guilford,06437,101 Fair Street,79.0
https://www.liveauctioneers.com/auctioneer/1437/the-red-bella-rose/,41.5628,-72.6498,CT,Middletown,06457,54 Washington Street,36.0
https://www.liveauctioneers.com/auctioneer/1440/pangaea-auctions/,26.8422,-80.0878,NV,Carson City,89703,311 South Division Street,23.0
https://www.liveauctioneers.com/auctioneer/1451/stampler-auctions/,26.046,-80.2181,FL,Davie,33314,5412 Stirling Road,20.0
https://www.liveauctioneers.com/auctioneer/1459/material-culture/,40.0158,-75.173,PA,Philadelphia,19144,4700 Wissahickon Ave. Suite 101,199.0
https://www.liveauctioneers.com/auctioneer/1460/18th-place-auction-inc/,27.6353,-80.3965,FL,Vero Beach,32960,1103 18th Place,2.0
https://www.liveauctioneers.com/auctioneer/1479/hess-fine-auctions/,27.7838,-82.6385,FL,St Petersburg,33701,1131 4th Street N,50.0
https://www.liveauctioneers.com/auctioneer/1480/aaron-joseph-llc/,30.4328,-84.293,FL,Tallahassee,32310,644 McDonnell Dr Suite 2,11.0
https://www.liveauctioneers.com/auctioneer/1484/auctions-by-b-langston-llc/,30.3064,-81.6504,FL,Jacksonville,32211,6126 Atlantic Blvd,141.0
https://www.liveauctioneers.com/auctioneer/1491/tamarkin-rare-camera-auctions/,41.8972,-87.6352,IL,Chicago,60610,213 West Institute Place #403,10.0
https://www.liveauctioneers.com/auctioneer/1499/churchill-s-auction-gallery/,30.2661,-97.7396,TX,Austin,78701,410 East 5th Street,2.0
https://www.liveauctioneers.com/auctioneer/1502/the-gallery-on-roosevelt/,41.3284,-73.1045,CT,Derby,06418,300 Roosevelt Drive,3.0
https://www.liveauctioneers.com/auctioneer/1529/the-sell-it-now-store/,43.0352,-88.05,WI,Waukesha,53188,2315 Badger Drive Unit 1,3.0
https://www.liveauctioneers.com/auctioneer/1541/worldwide-auctioneers/,41.333,-85.0915,IN,Auburn,46706,5634 Opportunity Blvd. Suite A,36.0
https://www.liveauctioneers.com/auctioneer/1581/rr-auction/,42.8234,-71.6125,MA,Boston,02108,1 Beacon St,135.0
https://www.liveauctioneers.com/auctioneer/1599/revolving-vault-auction-and-estate-services/,29.7385,-95.4069,TX,Houston,77098,1847 West Alabama,9.0
https://www.liveauctioneers.com/auctioneer/1613/ny-nj-estate-and-auction-services/,41.6485,-74.5897,NY,Glen Wild,12738,351 Glen Wild Road,12.0
https://www.liveauctioneers.com/auctioneer/1630/quinn-s-auction-galleries-central-virginia/,38.0624,-78.4881,VA,Troy,23093     ,8845 Three Notch Road,54.0
https://www.liveauctioneers.com/auctioneer/1640/rare-era-sellandbidwellcom/,28.1461,-82.7568,FL,Tarpon Springs,34689,Funk & Wallace Inc. 114 E. Tarpon Ave. Suite #1,45.0
https://www.liveauctioneers.com/auctioneer/1642/wooten-and-wooten-auctioneers/,34.2451,-80.6074,SC,Camden,29020,818 Broad St.,49.0
https://www.liveauctioneers.com/auctioneer/1654/florida-auctions/,28.0736,-80.655,FL,West Melbourne,32904,,10.0
https://www.liveauctioneers.com/auctioneer/170/auctions-neapolitan/,26.147496,-81.797101,FL,Naples,34104,3196 Davis Blvd,157.0
https://www.liveauctioneers.com/auctioneer/1708/the-auction-house-sacramento/,38.581,-121.311,CA,Sacramento,95827,10076 Mills Station Road,90.0
https://www.liveauctioneers.com/auctioneer/171/soulis-auctions/,38.874,-94.1892,MO,Lone Jack,64070,529 W. Lone Jack-Lee's Summit Rd P.O. Box 17,381.0
https://www.liveauctioneers.com/auctioneer/174/richard-d-hatch-and-associates/,35.2928,-82.3777,NC,Flat Rock,28731,913 Upward Road,90.0
https://www.liveauctioneers.com/auctioneer/1746/north-american-auction-co/,45.6627,-110.958,MT,Bozeman,59715,34156 E Frontage Rd,104.0
https://www.liveauctioneers.com/auctioneer/175/alderfer-auction/,40.2718,-75.3173,PA,Hatfield,19440,501 Fairgrounds Road,327.0
https://www.liveauctioneers.com/auctioneer/177/william-j-jenack-auctioneers/,41.36383,-74.275848,NY,Chester,10918,18 Hambletonian Avenue,355.0
https://www.liveauctioneers.com/auctioneer/179/quinn-s-auction-galleries/,38.880581,-77.174625,VA,Falls Church,22046,360 S. Washington St.,285.0
https://www.liveauctioneers.com/auctioneer/1841/centurion-auctions/,30.4234,-84.2276,FL,Tallahassee,32301,1668 Capital Circle SE,86.0
https://www.liveauctioneers.com/auctioneer/1874/ahlers-and-ogletree-auction-gallery/,33.804,-84.4272,GA,Atlanta,30318,1788 Ellsworth Industrial Boulevard NW,131.0
https://www.liveauctioneers.com/auctioneer/1910/connoisseur-auctions/,34.26,-85.17,GA,Rome,30162,P.O. Box 849,311.0
https://www.liveauctioneers.com/auctioneer/1912/pace-auctions/,42.0388,-87.8905,IL,Des Plaines,60016,794 Lee St,45.0
https://www.liveauctioneers.com/auctioneer/1938/east-coast-auctions/,41.1513,-73.9417,NY,Congers,10989,17 N. Rockland Ave Building W,80.0
https://www.liveauctioneers.com/auctioneer/196/burchard-galleries-inc/,27.7988,-82.6666,FL,St. Petersburg,33713,2528 30th Avenue North,239.0
https://www.liveauctioneers.com/auctioneer/1962/antiques-and-art-by-imeon/,30.0073,-95.4556,TX,Houston,77069,6106 Knotty Post,11.0
https://www.liveauctioneers.com/auctioneer/197/hindman/,41.8857,-87.6606,IL,Chicago,60607,1550 West Carroll Avenue,943.0
https://www.liveauctioneers.com/auctioneer/20/aurora/,34.206278,-118.680753,CA,Bell Canyon,91307,30 Hackamore Lane Suite 3,40.0
https://www.liveauctioneers.com/auctioneer/2058/burns-auction-and-appraisal-llc/,39.7137,-82.5993,OH,Carroll,43112,3739 Old Columbus Rd. NW,57.0
https://www.liveauctioneers.com/auctioneer/2063/the-stein-auction-co/,42.1166,-88.0549,IL,Palatine,60078,P.O. Box 136,6.0
https://www.liveauctioneers.com/auctioneer/209/bunte-auction-services-inc/,42.072931,-88.29758,IL,Elgin,60123,755 Church Road,148.0
https://www.liveauctioneers.com/auctioneer/21/austin-auction-gallery/,30.485129,-97.852617,TX,Austin,78729-5479,8414 Anderson Mill Road,353.0
https://www.liveauctioneers.com/auctioneer/212/weiss-auctions/,40.6582,-73.6601,NY,Lynbrook,11563,74 Merrick Road,192.0
https://www.liveauctioneers.com/auctioneer/216/belhorn-auctions-llc/,40.034508,-83.150174,OH,Hilliard,43026,2746 Wynnerock Ct,59.0
https://www.liveauctioneers.com/auctioneer/218/early-american-history-auctions/,33.020908,-117.190346,CA,Rancho Santa Fe,92067,P.O. Box 3507,179.0
https://www.liveauctioneers.com/auctioneer/2211/miami-auction-gallery/,25.734,-80.3801,FL,Miami,33165,11455 sw 40th st. Suite # 208,159.0
https://www.liveauctioneers.com/auctioneer/2228/arcollectibles/,42.0382,-72.5604,MA,Springfield,01108,Springfield,22.0
https://www.liveauctioneers.com/auctioneer/227/stout-auctions/,40.292627,-87.29327,IN,Williamsport,47993,529 State Road 28 E,232.0
https://www.liveauctioneers.com/auctioneer/231/turkey-creek-auctions/,29.3516,-82.1577,FL,REDDICK,32686,15323 NW Gainesville RD,85.0
https://www.liveauctioneers.com/auctioneer/2368/premier-auction-house-inc/,26.91,-82.3247,FL,Englewood,34224,3031 Placida Road,23.0
https://www.liveauctioneers.com/auctioneer/2376/landu-online-auctions/,42.1214,-88.037,IL,Palatine,60067,675 North Ct. Ste. 350,3.0
https://www.liveauctioneers.com/auctioneer/2406/main-street-mining-co/,32.8361,-97.1411,TX,Bedford,76095,PO Box 210514,39.0
https://www.liveauctioneers.com/auctioneer/241/jackson-s-international-auctioneers/,42.5413,-92.4168,IA,Cedar Falls,50613,2229 Lincoln Street,144.0
https://www.liveauctioneers.com/auctioneer/2431/omega-auction-corp/,25.8576,-80.3161,FL,Hialeah,33012,1669 W. 39th Place,71.0
https://www.liveauctioneers.com/auctioneer/249/dan-morphy-auctions/,40.2204,-76.1017,PA,Denver,17517,2000 N Reading Road,548.0
https://www.liveauctioneers.com/auctioneer/2490/aaa-auction-service-llc/,41.0685,-84.9956,IN,New Haven,46774,2110 McConnell Drive,33.0
https://www.liveauctioneers.com/auctioneer/250/leland-little/,36.0619,-79.0863,NC,Hillsborough,27278,620 Cornerstone Court,372.0
https://www.liveauctioneers.com/auctioneer/251/myers-fine-art/,27.788,-82.6387,FL,St. Petersburg,33704,1600 4th Street North,22.0
https://www.liveauctioneers.com/auctioneer/2514/greenwich-auction/,41.0452,-73.5607,CT,Stamford,06902,83 Harvard Avenue,367.0
https://www.liveauctioneers.com/auctioneer/2541/artelisted/,26.3461,-80.2044,FL,Boca Raton,33428,10027 Umberland Place,166.0
https://www.liveauctioneers.com/auctioneer/2624/bremo-auctions/,38.0252,-78.4497,VA,Charlottesville,22911,588 Pantops Center,78.0
https://www.liveauctioneers.com/auctioneer/2650/accurate-auctions/,34.7626,-87.6823,AL,SHEFFIELD,34654,2900 JACKSON HWY,19.0
https://www.liveauctioneers.com/auctioneer/269/jeremiah-s-international-trading-company/,27.774373,-82.678668,FL,St. Petersburg,33713,289 34th Street North,233.0
https://www.liveauctioneers.com/auctioneer/2699/holabird-western-americana-collections/,39.4697,-119.77,NV,Reno,89511,3555 Airway DR Ste 308,121.0
https://www.liveauctioneers.com/auctioneer/27/bertoia-auctions/,39.4788,-75.0378,NJ,Vineland,08360,2141 DeMarco Drive Ph: 856-692-1881,138.0
https://www.liveauctioneers.com/auctioneer/275/john-coker-ltd/,36.0895,-83.5878,TN,Knoxville,37902,508 Union Ave. Unit 206,43.0
https://www.liveauctioneers.com/auctioneer/2770/imperial-auction/,26.5042,-81.8583,FL,CAPE CORAL,33910,PO BOX 101083,54.0
https://www.liveauctioneers.com/auctioneer/2793/the-lodge-auction-house-inc/,42.853,-78.8079,NY,Buffalo,14210,212 Cazenovia Street,103.0
https://www.liveauctioneers.com/auctioneer/2799/clements/,35.1837,-85.2465,TN,Hixson,37343,7022 Hwy153,56.0
https://www.liveauctioneers.com/auctioneer/282/old-barn-auction-llc/,41.044946,-83.642234,OH,Findlay,45840,10040 State Route 224 West,154.0
https://www.liveauctioneers.com/auctioneer/283/aands-antique-auction-co/,31.6044,-97.1021,TX,Waco,76706,900 East Loop 340,19.0
https://www.liveauctioneers.com/auctioneer/2831/continental-hobby-house/,43.915,-87.7473,WI,Cleveland,53015,PO Box 172,30.0
https://www.liveauctioneers.com/auctioneer/286/forsythes-auctions-llc/,38.867,-83.7909,OH,Russellville,45168,206 W Main St P.O. Box 188,87.0
https://www.liveauctioneers.com/auctioneer/2863/baker-s-antiques-and-auctions/,40.757,-73.1078,NY,Bohemia,11716,4770 Sunrise Hwy.,2105.0
https://www.liveauctioneers.com/auctioneer/287/alexander-historical-auctions-llc/,39.5273,-75.8121,MD,Chesapeake City,21915,98 Bohemia Avenue Suite Two,77.0
https://www.liveauctioneers.com/auctioneer/289/tom-harris-auctions/,42.016435,-92.909428,IA,Marshalltown,50158,2500 S. Center St. Ste 2000,199.0
https://www.liveauctioneers.com/auctioneer/2933/preston-opportunities/,32.8642,-83.8631,GA,Macon,31210,132 Cross Creek Circle,9.0
https://www.liveauctioneers.com/auctioneer/2945/flannery-s-estate-services/,41.6099,-74.3065,NY,Pine Bush,12566,26 Recreation Park Rd P.O Box 1658,131.0
https://www.liveauctioneers.com/auctioneer/2961/jack-gunter-artanddesign/,48.0902,-122.391,WA,Camano Island,98282,3311 SEast ,6.0
https://www.liveauctioneers.com/auctioneer/301/john-mcinnis-auctioneers-llc/,42.8565,-70.9311,MA,Amesbury,01913,76 Main Street,111.0
https://www.liveauctioneers.com/auctioneer/302/bonhams-skinner/,42.3175,-71.5888,MA,Boston,02116,63 Park Plaza,281.0
https://www.liveauctioneers.com/auctioneer/3022/blueberry-hill-galleries/,41.8488,-73.5532,NY,Amenia,12501,35 Mechanic Street ,16.0
https://www.liveauctioneers.com/auctioneer/3058/sabertooth-auctions/,36.6175,-88.3253,KY,Murray,42071,804 Coldwater Rd,365.0
https://www.liveauctioneers.com/auctioneer/308/lloyd-ralston-gallery/,41.3191,-73.0953,CT,Shelton,06484,549 Howe Ave.,180.0
https://www.liveauctioneers.com/auctioneer/3107/gsauctions/,33.7433,-84.6869,GA,Douglasville,30135,6118 Fairburn Road,12.0
https://www.liveauctioneers.com/auctioneer/315/bodnar-s-auction-sales/,40.3872,-74.5691,NJ,New Brunswick ,08903,PO Box 1132,174.0
https://www.liveauctioneers.com/auctioneer/3195/ye-olde-auction-block/,34.4103,-118.912,CA,FILLMORE,93015,408 ARUNDELL CIR,127.0
https://www.liveauctioneers.com/auctioneer/3206/a-nice-gift-for-you/,34.4797,-118.521,CA,SANTA CLARITA,91390,29250 Discovery Ridge Dr,889.0
https://www.liveauctioneers.com/auctioneer/321/fusco-auctions/,41.6367,-81.4082,OH,Willoughby,44094,4740 Beidler Rd. Rear,84.0
https://www.liveauctioneers.com/auctioneer/3211/hollywood-auction-galleries/,25.9949,-80.2014,FL,Hollywood,33023,5720 Pembroke Rd,3.0
https://www.liveauctioneers.com/auctioneer/323/kaminski-auctions/,42.5557,-70.8826,MA,Beverly,01915,117 Elliott Street,456.0
https://www.liveauctioneers.com/auctioneer/3231/davidson-galleries/,47.5999,-122.333,WA,Seattle,98104,313 Occidental Ave South,1.0
https://www.liveauctioneers.com/auctioneer/324/flomaton-antique-auction/,31.004858,-87.263125,AL,Flomaton,36441,P.O. Box 1017,45.0
https://www.liveauctioneers.com/auctioneer/3256/lakeland-antique-bazaar/,27.9525,-81.9695,FL,Lakeland,33807,P o box 5354,1241.0
https://www.liveauctioneers.com/auctioneer/328/crescent-city-auction-gallery/,29.9397,-90.0745,LA,New Orleans,70130,1330 St. Charles Avenue,176.0
https://www.liveauctioneers.com/auctioneer/3324/milestone-auctions/,41.6774,-81.4062,OH,Willoughby,44094,38198 Willoughby Parkway,194.0
https://www.liveauctioneers.com/auctioneer/3370/blackswan-antiques/,42.525,-83.5504,MI,WIXOM,48393,50586 PONTIAC TRAIL SUITE XC16,7.0
https://www.liveauctioneers.com/auctioneer/3386/rockabilly-auction-company/,34.2513,-83.466,GA,Hartwell,30643,76 Ulyanovsk St.,47.0
https://www.liveauctioneers.com/auctioneer/341/ken-s-antiques-and-auction/,34.364075,-84.926598,GA,Adairsville,30103,5563 Joe Frank Harris Pkwy,60.0
https://www.liveauctioneers.com/auctioneer/3439/beacon-hillred-rooster-auctioneers-and-appraisers/,42.4937,-72.0231,MA,Hubbardston,01452,PO Box 175,3.0
https://www.liveauctioneers.com/auctioneer/3444/florida-estate-sales-inc/,30.4366,-84.2539,FL,Tallahassee,32301,1500 Apalachee Pkwy #2135,102.0
https://www.liveauctioneers.com/auctioneer/3447/possessions-inc/,33.1451,-111.556,AZ,San Tan Valley,85143,1059 E. Taylor Trail,1.0
https://www.liveauctioneers.com/auctioneer/351/the-cobbs-auctioneers-llc/,42.8597,-71.962,NH,Peterborough,03458,at Historic Noone Falls Mill 50 Jaffrey Road,20.0
https://www.liveauctioneers.com/auctioneer/3514/j-james-auctioneers-and-appraisers/,41.9655,-70.677,MA,Plymouth,02360,190 Court St,37.0
https://www.liveauctioneers.com/auctioneer/3532/addison-and-sarova-auctioneers/,33.6593,-83.717,GA,Social Circle,30025,291 N. Cherokee Road,25.0
https://www.liveauctioneers.com/auctioneer/3585/hilliard-and-co/,38.381,-78.2569,VA,Madison,22727,132 N Main St,80.0
https://www.liveauctioneers.com/auctioneer/359/dumouchelles/,42.3307,-83.0409,MI,Detroit,48226,409 East Jefferson Ave,639.0
https://www.liveauctioneers.com/auctioneer/3603/oakridge-auction-gallery/,39.0177,-77.4552,VA,Ashburn,20147,44675 Cape Court #171,109.0
https://www.liveauctioneers.com/auctioneer/361/bill-hood-and-sons-art-and-antique-auctions/,26.439461,-80.092286,FL,Delray Beach,33445,2885 South Congress Ave. suite A,210.0
https://www.liveauctioneers.com/auctioneer/368/affiliated-auctions/,30.4289,-84.2395,FL,Tallahassee,32301,2500 Apalachee Parkway,458.0
https://www.liveauctioneers.com/auctioneer/370/tw-conroy-llc/,43.034129,-76.448434,NY,Elbridge,13060,101 West Main Street,74.0
https://www.liveauctioneers.com/auctioneer/3713/china-luban-art-and-antique-inc/,39.1055,-77.1449,MD,Rockville,20850,15229 Display Court,30.0
https://www.liveauctioneers.com/auctioneer/3750/fox-and-crane-online-auctions/,42.0816,-73.9588,NY,Saugerties,12477,105 Partition Street,30.0
https://www.liveauctioneers.com/auctioneer/3759/kensington-estate-auction/,41.6716,-74.0789,NY,Clintondale,12515,989 Plattekill Road,52.0
https://www.liveauctioneers.com/auctioneer/376/todd-mueller-autographs-inc/,38.9811,-104.681,CO,Colorado Springs,80908,10250 Huntsman Road ,11.0
https://www.liveauctioneers.com/auctioneer/377/livingston-s-auction/,35.393761,-97.602513,OK,Oklahoma City,73108,1300 B Cornell,50.0
https://www.liveauctioneers.com/auctioneer/378/pook-and-pook-inc/,40.011951,-75.695341,PA,Downingtown,19335,463 East Lancaster Ave.,105.0
https://www.liveauctioneers.com/auctioneer/3798/last-chance/,40.7537,-73.9992,NY,IL CA OH TX FL,,Various Partner Locations,914.0
https://www.liveauctioneers.com/auctioneer/3799/iroquois-auctions/,43.2321,-76.133,NY,Brewerton,13029,PO Box 736,15.0
https://www.liveauctioneers.com/auctioneer/380/kamelot-auctions/,39.9904,-75.1084,PA,Philadelphia,19134,2220 East Allegheny Ave,209.0
https://www.liveauctioneers.com/auctioneer/3807/lemar-auctions-and-estate-services/,38.6489,-121.417,CA,McClellan,95652,4522 Parker Avenue Suite 500,64.0
https://www.liveauctioneers.com/auctioneer/381/ss-auction-inc/,39.8003,-75.2993,NJ,Repaupo,08085,62 Repaupo Station Road,118.0
https://www.liveauctioneers.com/auctioneer/385/william-bunch-auctions-and-appraisals/,39.867165,-75.569294,PA,Chadds Ford,19317,One Hillman Drive,261.0
https://www.liveauctioneers.com/auctioneer/3954/bruneau-and-co-auctioneers/,41.7638,-71.424,RI,Cranston,02910,63 Fourth Avenue,105.0
https://www.liveauctioneers.com/auctioneer/3971/bidalot-coin-auction/,29.1343,-81.0258,FL,PORT ORANGE,32129,P. O. BOX 291352,387.0
https://www.liveauctioneers.com/auctioneer/4006/witherell-s/,38.5842,-121.477,CA,Sacramento,95811,300 20th Street,20.0
https://www.liveauctioneers.com/auctioneer/406/rich-penn-auctions/,42.4951,-92.3408,IA,Waterloo,50704,P.O. Box 1355,89.0
https://www.liveauctioneers.com/auctioneer/4062/jmg-metals-llc/,30.4211,-97.7544,TX,Austin,78759,11782 Jollyville Rd. Suite 217,21.0
https://www.liveauctioneers.com/auctioneer/413/kodner-galleries-inc/,26.050756,-80.14319,FL,Dania Beach,33004,45 South Federal Highway,267.0
https://www.liveauctioneers.com/auctioneer/4131/a-and-a-auction-gallery/,36.9833,-122.035,CA,Santa Cruz,95060,191 A Harvey West Blvd,79.0
https://www.liveauctioneers.com/auctioneer/414/applebrook-auctions-and-estate-sales/,41.5799,-73.415,CT,New Milford,06776,27 Bridge Street,95.0
https://www.liveauctioneers.com/auctioneer/4207/brand-used-works/,39.5346,-118.988,CO,Penrose,81240,855 5th St,67.0
https://www.liveauctioneers.com/auctioneer/4221/donley-auctions/,42.2055,-88.549,IL,Union,60180,8512 South Union Road,62.0
https://www.liveauctioneers.com/auctioneer/4247/sofe-design-auctions-llc/,32.9457,-96.7356,TX,Richardson,75081,401 S. Sherman St. Ste. # 221,40.0
https://www.liveauctioneers.com/auctioneer/431/national-book-auctions/,42.429387,-76.497421,NY,Ithaca,14850-6071,1429 Danby Road,80.0
https://www.liveauctioneers.com/auctioneer/4383/epic-auctions-and-estate-sales/,42.4498,-84.4316,MI,Leslie,49251,169 S Main,24.0
https://www.liveauctioneers.com/auctioneer/444/regency-superior-ltd/,38.687199,-90.238344,MO,St. Louis,63108-1505,229 N. Euclid Ave,28.0
https://www.liveauctioneers.com/auctioneer/446/cordier-auctions-and-appraisals/,40.2561,-76.864,PA,Harrisburg,17104,1500 Paxton Street,293.0
https://www.liveauctioneers.com/auctioneer/4473/turner-auctions-appraisals/,37.6513,-122.395,CA,South San Francisco,94080,461 Littlefield Ave.,125.0
https://www.liveauctioneers.com/auctioneer/4503/tremont-auctions/,42.36,-71.4381,MA,Sudbury,01776,615 Boston Post Road Suite 7,49.0
https://www.liveauctioneers.com/auctioneer/4547/millbrook-auction-center/,41.7855,-73.6935,NY,Millbrook,12545,3283 Franklin Avenue,20.0
https://www.liveauctioneers.com/auctioneer/456/bs-slosberg-inc-auctioneers/,39.9873,-75.0957,PA,Philadelphia,19134,3455 Edgemont St,241.0
https://www.liveauctioneers.com/auctioneer/4561/wrights-estate-liquidations/,38.5644,-121.357,CA,Sacramento,95826,9220 Vancouver Drive,3.0
https://www.liveauctioneers.com/auctioneer/46/cowan-s-auctions/,39.1635,-84.4134,OH,Cincinnati,45227,5030 Oaklawn Dr,255.0
https://www.liveauctioneers.com/auctioneer/4649/housatonic-trading-company/,41.7233,-73.242,CT,Bantam,06750,920 Bantam Rd ,9.0
https://www.liveauctioneers.com/auctioneer/4651/corbett-s-auction-house/,39.6272,-105.012,CO,Littleton,80120,4921 S Santa Fe Dr,33.0
https://www.liveauctioneers.com/auctioneer/4778/freedom-auction-company/,27.3818,-82.5387,FL,Sarasota,34234,1601 DESOTO ROAD,80.0
https://www.liveauctioneers.com/auctioneer/4806/antiques-arms-and-armor/,33.6016,-117.581,CA,Trabuco Canyon,92679,15 Blackhawk,2.0
https://www.liveauctioneers.com/auctioneer/481/wickliff-auctioneers/,39.966,-86.149,IN,Carmel,46032,1054 Summit Drive,163.0
https://www.liveauctioneers.com/auctioneer/4827/kings-auction-and-appraisal/,38.8224,-97.6221,KS,Salina,67401,817 W Crawford St,4.0
https://www.liveauctioneers.com/auctioneer/483/clarke-auction-gallery/,40.9234,-73.7611,NY,Larchmont,10538,2372 Boston Post Road,187.0
https://www.liveauctioneers.com/auctioneer/4875/wealthier-art-and-auction/,34.0505,-117.999,CA,La Puente,91746,13158/13162 Valley Blvd,86.0
https://www.liveauctioneers.com/auctioneer/49/dargate-auction-galleries/,40.469885,-80.059967,PA,McKees Rocks,15136,326 Munson Avenue,64.0
https://www.liveauctioneers.com/auctioneer/4915/dixon-s-crumpton-auction/,39.2326,-75.916,MD,Crumpton,21628,2017 Dudley Corners Rd,22.0
https://www.liveauctioneers.com/auctioneer/4979/helios-auctions/,40.7581,-73.9655,NY,New York,10022,1050 Second Avenue Gallery # 52,35.0
https://www.liveauctioneers.com/auctioneer/511/santa-margarita-auction-barn/,35.4997,-120.685,CA,Atascadero,93422,3850 El Camio Real,12.0
https://www.liveauctioneers.com/auctioneer/5135/zikorn-arts-and-history-objects/,40.7623,-73.9694,NY,New York,10022,110 East 59 Street 9a,19.0
https://www.liveauctioneers.com/auctioneer/517/braxton-s-auction-gallery/,33.8388,-83.9013,GA,Loganville,30052,303 Main Street,7.0
https://www.liveauctioneers.com/auctioneer/5173/matthew-bullock-auctioneers/,41.3788,-88.8345,IL,Ottawa,61350,421 East Stevenson Road,247.0
https://www.liveauctioneers.com/auctioneer/5197/bandc-collectibles/,30.3297,-97.6937,TX,AUSTIN,78752,7302 GRAND CANYON DRIVE SIDE B,131.0
https://www.liveauctioneers.com/auctioneer/522/butterscotch-auction/,41.2025,-73.6444,NY,Bedford,10506,608 Old Post Rd,54.0
https://www.liveauctioneers.com/auctioneer/523/alex-cooper/,39.4079,-76.6079,MD,Towson,21204,908 York Road,209.0
https://www.liveauctioneers.com/auctioneer/525/case-antiques-inc-auctions-and-appraisals/,35.9074,-84.0062,TN,Knoxville,37909,4310 Papermill Drive ,53.0
https://www.liveauctioneers.com/auctioneer/5322/blackwell-auctions/,27.874,-82.707,FL,Clearwater,33760,5251 110th Ave N Suite 118,63.0
https://www.liveauctioneers.com/auctioneer/5473/heartland-artifact-auctions-inc/,39.95,-91.36,IL,Quincy,62306,P.O. Box 1089,164.0
https://www.liveauctioneers.com/auctioneer/5577/house-of-treasure/,39.0221,-77.41,VA,Sterling,20166,45969 Nokes Blvd,216.0
https://www.liveauctioneers.com/auctioneer/5600/terri-peters-and-associates-auction-and-estate-marketing/,43.0011,-75.9789,NY,Manlius,13104,100 East Seneca Street 1st Floor,16.0
https://www.liveauctioneers.com/auctioneer/5647/ole-hound-auction-house/,33.5949,-83.7487,GA,Social Circle,30025,179 Hwy. 11 South ,24.0
https://www.liveauctioneers.com/auctioneer/567/burley-auction-group/,29.6816,-98.0631,TX,New Braunfels,78130,134 Deborah Drive,44.0
https://www.liveauctioneers.com/auctioneer/5671/worth-auctions/,42.487,-76.34,NY, Freeville,13068,The Galleries at Worth Asset Brokerage 2085 Dryden Rd,39.0
https://www.liveauctioneers.com/auctioneer/5688/complete-auctions/,28.0364,-82.7384,FL,Palm Harbor,34683,Live Webcast Auction - Bidding activity is online only,14.0
https://www.liveauctioneers.com/auctioneer/5755/grant-zahajko-auctions-llc/,47.6543,-118.149,WA,Davenport,99122,510 Morgan Street,141.0
https://www.liveauctioneers.com/auctioneer/5758/midwest-auctions/,41.8009,-90.3565,IA,Miles,52064,12475 Hwy 52,22.0
https://www.liveauctioneers.com/auctioneer/5812/auctions-by-adkins-llc/,29.4981,-82.2938,FL,Micanopy,32667,17020 SE County Road 234 ,66.0
https://www.liveauctioneers.com/auctioneer/5818/direct-auction-galleries/,42.0134,-87.6907,IL,Chicago,60645,7232 N. Western Ave.,38.0
https://www.liveauctioneers.com/auctioneer/5847/americana-auctions/,41.844,-71.2608,MA,Rehoboth,02769,380 Winthrop Street,28.0
https://www.liveauctioneers.com/auctioneer/5891/willow-fine-art-gallery/,26.1279,-80.1206,FL,Fort Lauderdale,33301,180 Isle of Venice,64.0
https://www.liveauctioneers.com/auctioneer/5927/delaware-fine-art-auction/,39.6678,-75.7781,DE,Newark,19711,406 Suburban Dr. 129,8.0
https://www.liveauctioneers.com/auctioneer/5962/churchill-galleries/,40.7191,-73.2522,NY,Bayshore ,11706,168 West Main Street,120.0
https://www.liveauctioneers.com/auctioneer/5985/revere-auctions/,44.9648,-93.183,MN,St. Paul,55104,755 Prior Ave N #235C,54.0
https://www.liveauctioneers.com/auctioneer/6036/e-and-e-auctions/,42.4248,-74.6439,NY,Stamford,12167,27482 NY State Route 23,11.0
https://www.liveauctioneers.com/auctioneer/6038/vn-collectible/,48.99,-122.727,WA,Blaine,98230,1927 Boblett Street,50.0
https://www.liveauctioneers.com/auctioneer/6048/goldfinch-auctions/,40.5319,-75.063,NJ,Lebanon,08833,1101 Stanton Lebanon Rd,19.0
https://www.liveauctioneers.com/auctioneer/6053/dana-j-tharp-auctions/,41.6294,-81.4317,OH,Willoughby,44094,4740 Beidler Rd. (Rear),22.0
https://www.liveauctioneers.com/auctioneer/6056/rapid-estate-liquidators-and-auction-gallery/,28.5783,-81.4114,FL,Orlando,32804,2305 Silver Star Road,1068.0
https://www.liveauctioneers.com/auctioneer/6087/lion-and-unicorn/,26.0361,-80.1614,FL,Hollywood,33020,200 Oakwood Ln Suite 200,214.0
https://www.liveauctioneers.com/auctioneer/610/nette-auctions/,41.407483,-73.469648,CT,Danbury,6810,45 West St Lower Level-Rear,116.0
https://www.liveauctioneers.com/auctioneer/6110/redlands-antique-auction/,34.0588,-117.207,CA,Redlands,92373,1547 W. Park Avenue,93.0
https://www.liveauctioneers.com/auctioneer/6125/ross-auction-company/,39.332861,-82.983916,OH,Chillicothe,45601,50 west main st,10.0
https://www.liveauctioneers.com/auctioneer/6146/over-and-above-online-auction-and-estate-sales-llc/,39.4314,-76.6291,MD,Timonium,21093,1919 Greenspring Dr.,13.0
https://www.liveauctioneers.com/auctioneer/6152/emanon-auctions-and-estate-sales/,40.4226,-74.2092,NJ,Morganville,07751,479 Route 79 Ste B3b,536.0
https://www.liveauctioneers.com/auctioneer/6189/white-s-auctions/,41.8925,-70.9069,MA,Middleboro,02346,19 Jackson St.,24.0
https://www.liveauctioneers.com/auctioneer/6202/rare-treasures/,40.292,-76.8072,PA,Harrisburg,17109,7 Rutherford Rd.,129.0
https://www.liveauctioneers.com/auctioneer/6203/poulin-antiques-and-auctions/,44.615,-69.5939,ME,Fairfield,04937,199 U.S. 201,50.0
https://www.liveauctioneers.com/auctioneer/622/harlowe-powell-auction-gallery/,38.036141,-78.482369,VA,Charlottesville,22901,2109 India Road--Seminole Square,24.0
https://www.liveauctioneers.com/auctioneer/6266/kamy-inc/,25.81,-80.3248,FL,Miami,33166,3901 NW 79TH Ave,231.0
https://www.liveauctioneers.com/auctioneer/628/aberdeenauctiongalleries/,28.169383,-82.483851,FL,Lutz,33558,19805 Reading Rd PO Box 38,14.0
https://www.liveauctioneers.com/auctioneer/6290/affinity-antique-auction/,40.7414,-73.7831,NY,Fresh Meadows,11365,POBOX 650598,76.0
https://www.liveauctioneers.com/auctioneer/6306/university-archives/,41.1721,-73.4159,CT,Wilton,06897,88 Danbury Road Suite 2A,51.0
https://www.liveauctioneers.com/auctioneer/6311/route-32-auctions/,40.0468,-86.8744,IN,Crawfordsville,47933,3097 E. S.R. 32,66.0
https://www.liveauctioneers.com/auctioneer/632/conestoga-auction-company-division-of-hess-auction-group/,40.1174,-76.3802,PA,Manheim,17545,768 Graystone Road,128.0
https://www.liveauctioneers.com/auctioneer/6320/good-old-days-antique-auction/,33.6251,-117.725,CA,Laguna Hills,92653,23232 PERALTA DRIVE ST# 207 ,8.0
https://www.liveauctioneers.com/auctioneer/6326/angry-mama-s-auction-company-llc/,34.4687,-84.4306,GA,Jasper,30143,57 No. Main St.,5.0
https://www.liveauctioneers.com/auctioneer/634/o-gallerie/,45.533467,-122.650095,OR,Portland,97232,228 Northeast Seventh Avenue,170.0
https://www.liveauctioneers.com/auctioneer/6355/ralph-fontaine-heritage-auctions-inc/,42.382,-73.4239,NY,Canaan,12029,13150 State Route 22,30.0
https://www.liveauctioneers.com/auctioneer/6372/pegasus-auction-gallery/,25.766368,-80.210268,FL,Miami,33186,13319 SW 135th Ave,2.0
https://www.liveauctioneers.com/auctioneer/6385/black-river-auction/,39.591458,-75.492287,NJ,Pennsville,8070,696 South Broadway,
https://www.liveauctioneers.com/auctioneer/6401/lionsmark-auction-company/,41.3088,-88.1475,IL,Wilmington,60481,202 N. Water St.,17.0
https://www.liveauctioneers.com/auctioneer/642/pba-galleries/,37.8659,-122.302,CA,Berkeley,94710,605 Addison Street,423.0
https://www.liveauctioneers.com/auctioneer/648/strawser-auction-group/,41.527632,-85.3662,IN,Wolcottville,46795,200 North Main Street PO Box 332,219.0
https://www.liveauctioneers.com/auctioneer/6490/oneill-auctions-llc/,41.6939,-81.2962,OH,Mentor,44060,448 blackbrook rd,1.0
https://www.liveauctioneers.com/auctioneer/654/woody-auction-llc/,37.5169,-97.0167,KS,Douglass,67039,317 S. Forrest P.O. Box 618,189.0
https://www.liveauctioneers.com/auctioneer/6563/lodestar-auctions/,42.3897,-87.9292,IL,Gurnee,60031,5110 Red Pine Ave,75.0
https://www.liveauctioneers.com/auctioneer/6568/dave-taylor-s-civil-war-antiques-online-auctions/,41.6598,-83.7331,OH,Sylvania,43560,PO Box 87,13.0
https://www.liveauctioneers.com/auctioneer/6578/connecticut-firearms-auction/,41.5791,-72.9026,CT,Plantsville,06479,8 Metals Drive,27.0
https://www.liveauctioneers.com/auctioneer/6579/the-archive-auction-llc/,40.2476,-75.2911,PA,Lansdale,19446,725 West 2nd Street,36.0
https://www.liveauctioneers.com/auctioneer/6586/richard-l-edwards-auctioneering/,40.1234,-84.5861,OH,Greenville,45331,5862 Kruckeburg Rd,748.0
https://www.liveauctioneers.com/auctioneer/6615/paul-arsenault-auctioneers/,44.2413,-70.5129,ME,South Paris,04281,17 Olson Road,26.0
https://www.liveauctioneers.com/auctioneer/6625/pop-s-place/,34.2607,-85.133,GA,Rome,30161,504 1st Ave,9.0
https://www.liveauctioneers.com/auctioneer/6629/south-florida-auction-and-estate-sale-services-inc/,33.9887,-83.898,GA,Dacula,30019,PO Box 2330,28.0
https://www.liveauctioneers.com/auctioneer/6675/lot-14-auctions/,42.0177,-87.7842,IL,Niles,60714,6231 W Howard St.,119.0
https://www.liveauctioneers.com/auctioneer/6717/beachwood-auctions-llc/,41.3535,-81.4753,OH,SOLON,44139,7630 Bond Street,20.0
https://www.liveauctioneers.com/auctioneer/6765/seminole-estate-auction/,28.9358,-81.2993,FL,Orange City,32763,1141 South Volusia Avenue,19.0
https://www.liveauctioneers.com/auctioneer/68/garth-s-auction-inc/,40.0266,-82.9958,OH,Columbus,43215,589 W Nationwide Blvd,142.0
https://www.liveauctioneers.com/auctioneer/686/midwest-auction-galleries-inc/,42.839139,-83.274539,MI,Oxford,48371,925 N. Lapeer Road,124.0
https://www.liveauctioneers.com/auctioneer/690/desert-west-auction/,32.841196,-107.960726,NM,Mimbres,88049,3870 North Highway 35 PO Box 77,212.0
https://www.liveauctioneers.com/auctioneer/6906/french-broad-river-auctions/,35.2724,-82.4422,NC,Flat Rock,28731,PO Box 412,8.0
https://www.liveauctioneers.com/auctioneer/6949/vogt-auction-texas/,29.5245,-98.5051,TX,San Antonio,78216,7233 Blanco Road,152.0
https://www.liveauctioneers.com/auctioneer/6975/antique-arena-inc/,40.5855,-73.9607,NY,Brooklyn,11235,2910 Coney Island Ave 1st Floor,99.0
https://www.liveauctioneers.com/auctioneer/6996/mitchell-auctions-llc/,35.4874,-80.799,NC,Davidson,28036,PO Box 65,5.0
https://www.liveauctioneers.com/auctioneer/700/central-street-antiques-and-auction/,41.852,-72.6437,CT,Windsor,06095,25 Central Street,46.0
https://www.liveauctioneers.com/auctioneer/7015/toystrainsandotheroldstuff-llc/,40.6089,-87.3605,IN,Fowler,47944,1951 W Division Rd,74.0
https://www.liveauctioneers.com/auctioneer/7031/valkyrie-historical-auctions/,33.3092,-111.821,AZ,Chandler,85225,,16.0
https://www.liveauctioneers.com/auctioneer/7045/schultz-auctioneers/,42.9844,-78.5694,NY,Clarence,14031,11177 Main St.,47.0
https://www.liveauctioneers.com/auctioneer/7049/a-squared-auctions/,42.2182,-83.7651,MI,Ann Arbor,48108,1845 Cypress Pointe Ct,18.0
https://www.liveauctioneers.com/auctioneer/7060/gun-auctions-usa/,27.893,-82.7476,FL,Largo,33773,13200 Belcher Rd South,30.0
https://www.liveauctioneers.com/auctioneer/7112/allstate-antiques-inc/,40.7547,-73.9372,NY,Long Island City,11101,39-06 Crescent St Floor 1,17.0
https://www.liveauctioneers.com/auctioneer/712/the-written-word-autographs/,43.885,-71.3458,NH,Tamworth,03886,564 Pease Hill Rd P. O. Box 490,42.0
https://www.liveauctioneers.com/auctioneer/7135/cowboy-joe-s-antiques/,32.2694,-106.778,NM,Las Cruces,88005,3307 McDowell Road,8.0
https://www.liveauctioneers.com/auctioneer/7157/heart-felt-antiques-and-auction-service/,42.8798,-73.2412,VT,Bennington,05201,1541 West Road Colgate Park,13.0
https://www.liveauctioneers.com/auctioneer/720/jim-depew-galleries-inc/,33.769805,-84.414581,GA,Atlanta,30324,715 Miami Circle Suite 210,55.0
https://www.liveauctioneers.com/auctioneer/7221/collectors-auction-company-llc/,40.3326,-76.7371,PA,Harrisburg,17112,7441 Allentown Blvd,4.0
https://www.liveauctioneers.com/auctioneer/7229/eagles-corps-international-llc/,43.066,-76.0125,NY,Minoa,13116,113 Forestview Ln,6.0
https://www.liveauctioneers.com/auctioneer/7247/old-kinderhook-auction-company/,42.4452,-73.6865,NY,Valatie,12184,3350 US Highway 9,18.0
https://www.liveauctioneers.com/auctioneer/7285/vintage-auctions-online/,41.0191,-84.048,OH,Ottawa,45875,111 W. Main Street,229.0
https://www.liveauctioneers.com/auctioneer/7302/gold-eagle-auctions/,37.8817,-122.188,CA,Orinda,94563,21 Orinda Way #552,5.0
https://www.liveauctioneers.com/auctioneer/7316/cny-militaria-and-collectibles-auctions-llc/,42.9931,-76.0719,NY,Jamesville,13078,PO Box 774 6499 E. Seneca Turnpike,8.0
https://www.liveauctioneers.com/auctioneer/7358/freeland-auction-services/,43.4943,-84.0984,MI,Freeland,48623,5868 Midland Rd Freeland Antique Mall,2.0
https://www.liveauctioneers.com/auctioneer/737/lyn-knight-auctions/,38.940141,-94.666829,KS,Overland Park,66207,PO Box 7364,39.0
https://www.liveauctioneers.com/auctioneer/7390/penny-pincher-auctions/,38.85,-77.31,VA,Fairfax,22038,P.O. Box 726,109.0
https://www.liveauctioneers.com/auctioneer/7411/davis-brothers-auction/,46.8875,-114.031,MT,Missoula,59808,2750 Palmer St Suite D,33.0
https://www.liveauctioneers.com/auctioneer/7440/fairhill-auction-llc/,39.6101,-75.824,MD,ELKTON,21921,227 E Main St,16.0
https://www.liveauctioneers.com/auctioneer/747/kimballs-auction-and-estate-services/,42.374093,-72.596635,MA,Hatfield,1038,65 Main Street,92.0
https://www.liveauctioneers.com/auctioneer/758/great-expectations-auction-company-llc/,30.3472,-81.6459,FL,Jacksonville,32206,515 E. 9th Street,13.0
https://www.liveauctioneers.com/auctioneer/7595/south-jersey-auction-by-babington-auction-inc/,39.8009,-75.3014,NJ,Logan Township,08085,26 Repaupo Station Road,37.0
https://www.liveauctioneers.com/auctioneer/765/james-cox-gallery/,42.07,-74.2257,NY,Willow,12495,4666 Route 212 ,24.0
https://www.liveauctioneers.com/auctioneer/7680/colorado-premier-realty-and-auction-services/,39.7703,-104.864,CO,Denver,80239,3700 Havana Street Suite 120,5.0
https://www.liveauctioneers.com/auctioneer/7699/esquis-auctions/,42.0885,-87.8412,IL,Glenview,60026,1821 Elmdale Ave,57.0
https://www.liveauctioneers.com/auctioneer/770/american-auction-co/,34.7673,-89.4488,TN,Selmer,38375,941 W. Cherry St.,9.0
https://www.liveauctioneers.com/auctioneer/776/atlanta-auction-company/,33.9492,-83.9879,GA,Lawrenceville,30046,133 South Clayton Street,31.0
https://www.liveauctioneers.com/auctioneer/7804/mynt-auctions/,40.754,-73.9905,NY,New York,10018,246 W 38th Street Suite 707,2650.0
https://www.liveauctioneers.com/auctioneer/7875/east-wing-estate-sales-and-auction-company/,41.5868,-73.0829,CT,Oakville,06779,28 Main Street,22.0
https://www.liveauctioneers.com/auctioneer/7947/morningstar-eart-group/,35.8439,-78.8881,NC,Cary,27519,7151 O'Kelly Chapel Rd Unit 111,39.0
https://www.liveauctioneers.com/auctioneer/7983/north-american-artifact-auctions/,39.7183,-91.3893,MO,Hannibal,63401,4036 Sunset Dr.,10.0
https://www.liveauctioneers.com/auctioneer/8037/fls-auction-inc/,32.965,-97.6923,TX,Lockhart,78644,5118 Barth Road,2.0
https://www.liveauctioneers.com/auctioneer/8113/bartkus-auctioneers/,41.2897,-85.2015,IN,LaOtto,46763,11595 E. State Rd 205,6.0
https://www.liveauctioneers.com/auctioneer/8243/western-trading-post/,32.8782,-111.753,AZ,Casa Grande,85122,403 N. Florence St,12.0
https://www.liveauctioneers.com/auctioneer/8386/a-testament-to-history-llc/,35.665,-97.6399,OK,Edmond,73012,19045 North Rockwell Avenue,1.0
https://www.liveauctioneers.com/auctioneer/840/dotta-auction-co-inc/,40.8022,-75.3465,PA,Nazareth,18064,330 W. Moorestown Road,54.0
https://www.liveauctioneers.com/auctioneer/853/mclaren-auction-services/,45.2306,-122.757,OR,Aurora,97002,21507 Hwy 99E NE P.O. Box 82,13.0
https://www.liveauctioneers.com/auctioneer/857/stephenson-s-auction/,40.1621,-75.0414,PA,Southampton,18966,1005 Industrial Blvd.,109.0
https://www.liveauctioneers.com/auctioneer/867/flying-pig-auctions/,42.9853,-72.3781,NH,Westmoreland ,03467,13 Industrial Park Dr,123.0
https://www.liveauctioneers.com/auctioneer/872/california-auctioneers/,34.3667,-119.307,CA,Ventura,93001,8597 Ventura Ave.,83.0
https://www.liveauctioneers.com/auctioneer/874/max-rambod-inc/,34.15775,-118.500706,CA,Encino,91436,16161 Ventura Blvd. #756,10.0
https://www.liveauctioneers.com/auctioneer/885/mathesons-gallery/,28.0788,-80.6111,FL,Melbourne,32901,600 E. New Haven Avenue,27.0
https://www.liveauctioneers.com/auctioneer/886/hake-s-auctions/,39.9931,-76.6539,PA,York,17402,3679 Concord Rd,36.0
https://www.liveauctioneers.com/auctioneer/897/harrison-auctions-inc/,26.561725,-81.954003,FL,Cape Coral,33904,4836 Candia Street,121.0
https://www.liveauctioneers.com/auctioneer/899/gulfcoast-coin-and-jewelry/,26.623796,-81.838295,FL,Fort Myers,33912,14181 S. Tamiami Trail #110,212.0
https://www.liveauctioneers.com/auctioneer/901/raynors-historical-collectible-auctions/,36.0622,-79.5204,NC,Burlington,27215,1687 West Buck Hill Rd,11.0
https://www.liveauctioneers.com/auctioneer/902/old-toy-soldier-auctions-usa/,40.3747,-80.0703,PA,Pittsburgh,15243,P.O. Box 13323,150.0
https://www.liveauctioneers.com/auctioneer/906/heritage-auctions/,32.8387,-96.9845,TX,Dallas,75261,2801 W. Airport Freeway,922.0
https://www.liveauctioneers.com/auctioneer/921/aristocrat-auction-services/,39.6944,-104.987,CO,Denver,80210,1229 S. Broadway,19.0
https://www.liveauctioneers.com/auctioneer/928/potter-and-potter-auctions/,41.9385,-87.752,IL,Chicago,60641,5001 W. Belmont Ave. ,134.0
https://www.liveauctioneers.com/auctioneer/939/edens-auctions-inc/,32.3413,-90.0746,MS,Flowood,39232,3720 Flowood Drive,9.0
https://www.liveauctioneers.com/auctioneer/941/leonard-auction-inc/,41.918,-87.9941,IL,Addison,60101,502 S. Westgate St.,119.0
https://www.liveauctioneers.com/auctioneer/942/hartzell-s-auction-gallery-inc/,40.7399,-75.1398,PA,Bangor,18013,521 Richmond Road ,159.0
https://www.liveauctioneers.com/auctioneer/946/us-asset-fortfeiture-and-seizures-inc/,48.245218,-122.338231,WA,Stanwood,98292,26910 92nd Ave NW C5 Suite #209,414.0
https://www.liveauctioneers.com/auctioneer/95/michael-malter/,34.15775,-118.500706,CA,Encino,91316,17003 Ventura Bl. Ste. 205,50.0
https://www.liveauctioneers.com/auctioneer/957/thomaston-place-auction-galleries/,44.0779,-69.2127,ME,Thomaston,04861,51 Atlantic Highway,150.0
https://www.liveauctioneers.com/auctioneer/970/mark-mattox-real-estate-and-auctioneer/,38.3326,-84.0655,KY,Carlisle,40311,3740 Maysville Road,52.0
https://www.liveauctioneers.com/auctioneer/983/fairfield-auction-llc/,41.3399,-73.2624,CT,Monroe,06468,707 Main St,71.0
https://www.liveauctioneers.com/auctioneer/989/seized-assets-auctioneers/,34.2252,-119.024,CA,Camarillo,93012,725 Via Alondra,3964.0
https://www.liveauctioneers.com/auctioneer/991/hamilton-s-antique-auction-gallery/,47.1311,-122.433,WA,Tacoma,98421,505 Puyallup Ave,100.0
https://www.liveauctioneers.com/auctioneer/992/carl-w-stinson-auctioneers-and-appraisers/,42.5393,-71.0878,MA,Reading,01867,293 Haverhill Street ,5.0
https://www.liveauctioneers.com/auctioneer/994/auction-results-in-conjunction-with-owen-magic-supreme/,34.1349,-117.914,CA,Azusa,91702,734 N. McKeever Ave,7.0
